OBJECT_NAME,OBJECT_ID,EPOCH,MEAN_MOTION,ECCENTRICITY,INCLINATION,RA_OF_ASC_NODE,ARG_OF_PERICENTER,MEAN_ANOMALY,EPHEMERIS_TYPE,CLASSIFICATION_TYPE,NORAD_CAT_ID,ELEMENT_SET_NO,REV_AT_EPOCH,BSTAR,MEAN_MOTION_DOT,MEAN_MOTION_DDOT
INTELSAT 23 (IS-23),2012-057A,2026-07-17T21:34:35.137056,1.00262942,.00006929,0.0132,328.6176,281.6842,316.0074,0,U,38867,999,5026,0,-.294E-5,0
FM-6,2013-058A,2026-07-17T21:16:31.553184,1.00271283,.00016274,0.0113,33.8260,149.2195,315.4236,0,U,39360,999,4638,0,-.24E-6,0
INTELSAT 30 (IS-30),2014-062A,2026-07-17T19:39:43.581024,1.00273419,.00014286,0.0182,55.4118,329.4971,110.6015,0,U,40271,999,710,0,-.16E-5,0
DIRECTV 14,2014-078B,2026-07-17T21:21:16.097760,1.00270109,.00003378,0.0107,45.5381,324.1187,147.1138,0,U,40333,999,4235,0,-.134E-5,0
DIRECTV 15,2015-026A,2026-07-17T14:29:39.905376,1.00272685,.00001596,0.0230,78.6192,321.3364,9.9880,0,U,40663,999,4076,0,-.112E-5,0
SKY MEXICO-1,2015-026B,2026-07-17T09:28:38.624736,1.00273000,.0002331,0.0130,67.3239,65.4002,225.8447,0,U,40664,999,4075,0,-.244E-5,0
INTELSAT 34 (IS-34),2015-039A,2026-07-17T13:35:01.358016,1.00271968,.0000437,0.0102,26.4718,330.4627,86.7015,0,U,40874,999,3993,0,-.295E-5,0
INTELSAT 31 (IS-31),2016-035A,2026-07-17T08:51:38.465280,1.00270166,.0001057,0.0060,13.9840,283.2475,35.8039,0,U,41581,999,3698,0,-.16E-5,0
INTELSAT 36 (IS-36),2016-053A,2026-07-17T10:10:34.604832,1.00271735,.0002294,0.0105,39.2752,305.0932,171.9939,0,U,41747,999,3626,0,-.34E-6,0
INTELSAT 32E (IS-32E),2017-007B,2026-07-17T18:12:05.232096,1.00269679,.00005228,0.0205,56.6249,323.0836,145.7108,0,U,41945,999,3453,0,0,0
INTELSAT 35E (IS-35E),2017-041A,2026-07-17T21:39:49.633920,1.00272785,.00019082,0.0185,55.1689,63.1735,107.8214,0,U,42818,999,3312,0,-.247E-5,0
INTELSAT 37E (IS-37E),2017-059A,2026-07-17T21:44:34.179360,1.00272868,.00026265,0.0136,78.2555,41.9225,123.6673,0,U,42950,999,3237,0,-.149E-5,0
AZERSPACE 2 (IS-38),2018-074A,2026-07-17T11:46:35.387904,1.00270637,.0001457,0.0225,57.4459,53.1326,46.4993,0,U,43632,999,2875,0,0,0
HORIZONS-3E,2018-074B,2026-07-17T14:37:38.518176,1.00271240,.00007455,0.0397,248.7471,38.5602,36.5111,0,U,43633,999,2864,0,-.4E-6,0
AT&T T-16,2019-034A,2026-07-17T11:05:01.871808,1.00274290,.0000663,0.0143,73.6211,281.6891,5.3659,0,U,44333,999,2593,0,-.125E-5,0
INTELSAT 39 (IS-39),2019-049B,2026-07-17T22:57:21.125664,1.00269746,.00009094,0.0207,56.3117,294.9928,350.7547,0,U,44476,999,2543,0,0,0
GALAXY 30 (G-30),2020-056C,2026-07-17T14:23:25.503072,1.00270960,.00022542,0.0225,59.8270,58.8872,267.5676,0,U,46114,999,2159,0,0,0
GALAXY 33 (G-33),2022-128A,2026-07-17T17:46:22.696608,1.00269767,.00018412,0.0160,61.8846,51.7210,315.5257,0,U,54026,999,1404,0,.7E-6,0
GALAXY 34 (G-34),2022-128B,2026-07-17T17:02:22.932096,1.00271292,.00015114,0.0094,64.4505,52.4540,305.2046,0,U,54027,999,1421,0,.5E-6,0
GALAXY 31 (G-31),2022-153A,2026-07-17T21:15:01.697184,1.00272045,.00010925,0.0190,93.6582,25.4002,14.3746,0,U,54243,999,744,0,.4E-7,0
GALAXY 32 (G-32),2022-153B,2026-07-17T19:41:05.949600,1.00272394,.00013882,0.0116,50.5444,355.9350,93.4244,0,U,54244,999,1345,0,-.183E-5,0
GALAXY 35 (G-35),2022-170A,2026-07-17T19:40:28.509888,1.00272222,.00018669,0.0137,91.0268,25.2385,21.3699,0,U,54741,999,1320,0,-.171E-5,0
GALAXY 36 (G-36),2022-170B,2026-07-17T19:41:28.413600,1.00271807,.00026141,0.0170,141.2540,317.2384,43.5043,0,U,54742,999,1308,0,-.194E-5,0
GALAXY 37 (G-37),2023-112A,2026-07-17T14:22:48.063360,1.00269990,.00020186,0.0198,55.8349,59.5726,268.7145,0,U,57493,999,1084,0,0,0
